start=new Date('2022-05-07T00:00:00.000Z').valueOf();
sats=[{"RA_OF_ASC_NODE":"215.5743","LAUNCH_DATE":"2020-06-04","BSTAR":"-0.00010443000000","OBJECT_NAME":"STARLINK-1407","CLASSIFICATION_TYPE":"U","RCS_SIZE":"LARGE","INCLINATION":"53.0553","EPHEMERIS_TYPE":"0","PERIOD":"95.593","REV_AT_EPOCH":"10766","COUNTRY_CODE":"US","DECAY_DATE":null,"PERIAPSIS":"546.202","ARG_OF_PERICENTER":"66.7412","MEAN_MOTION_DOT":"-0.00001836","MEAN_MOTION_DDOT":"0.0000000000000","OBJECT_ID":"2020-035AY","NORAD_CAT_ID":"45703","TLE_LINE1":"1 45703U 20035AY  22126.54804230 -.00001836  00000-0 -10443-3 0  9993","MEAN_ELEMENT_THEORY":"SGP4","TIME_SYSTEM":"UTC","APOAPSIS":"548.272","FILE":"3432208","REF_FRAME":"TEME","ELEMENT_SET_NO":"999","SITE":"AFETR","EPOCH":"2022-05-06T13:09:10.854720","TLE_LINE2":"2 45703  53.0553 215.5743 0001495  66.7412 293.3734 15.06392397107660","CENTER_NAME":"EARTH","MEAN_MOTION":"15.06392397","GP_ID":"202858786","ECCENTRICITY":"0.00014950","SEMIMAJOR_AXIS":"6925.372","OBJECT_TYPE":"PAYLOAD","MEAN_ANOMALY":"293.3734"},{"OBJECT_TYPE":"PAYLOAD","MEAN_ANOMALY":"301.1463","MEAN_MOTION":"15.06401207","CENTER_NAME":"EARTH","SEMIMAJOR_AXIS":"6925.345","ECCENTRICITY":"0.00015450","GP_ID":"202870436","TLE_LINE2":"2 45704  53.0542 244.8624 0001545  58.9678 301.1463 15.06401207106864","EPOCH":"2022-05-06T16:57:21.536064","SITE":"AFETR","ELEMENT_SET_NO":"999","REF_FRAME":"TEME","FILE":"3432477","ARG_OF_PERICENTER":"58.9678","PERIAPSIS":"546.140","APOAPSIS":"548.280","TIME_SYSTEM":"UTC","MEAN_ELEMENT_THEORY":"SGP4","TLE_LINE1":"1 45704U 20035AZ  22126.70649926 -.00000127  00000-0  10360-4 0  9991","MEAN_MOTION_DDOT":"0.0000000000000","OBJECT_ID":"2020-035AZ","MEAN_MOTION_DOT":"-0.00000127","NORAD_CAT_ID":"45704","REV_AT_EPOCH":"10686","DECAY_DATE":null,"COUNTRY_CODE":"US","PERIOD":"95.592","EPHEMERIS_TYPE":"0","INCLINATION":"53.0542","BSTAR":"0.00001036000000","LAUNCH_DATE":"2020-06-04","RA_OF_ASC_NODE":"244.8624","RCS_SIZE":"LARGE","CLASSIFICATION_TYPE":"U","OBJECT_NAME":"STARLINK-1409"},{"MEAN_MOTION_DDOT":"0.0000000000000","OBJECT_ID":"2020-035BA","MEAN_MOTION_DOT":"-0.00001055","NORAD_CAT_ID":"45705","TLE_LINE1":"1 45705U 20035BA  22126.46785698 -.00001055  00000-0 -51912-4 0  9992","MEAN_ELEMENT_THEORY":"SGP4","APOAPSIS":"548.470","TIME_SYSTEM":"UTC","PERIAPSIS":"545.923","ARG_OF_PERICENTER":"71.0037","COUNTRY_CODE":"US","DECAY_DATE":null,"REV_AT_EPOCH":"10722","INCLINATION":"53.0520","EPHEMERIS_TYPE":"0","PERIOD":"95.592","OBJECT_NAME":"STARLINK-1410","CLASSIFICATION_TYPE":"U","RCS_SIZE":"LARGE","RA_OF_ASC_NODE":"245.9196","LAUNCH_DATE":"2020-06-04","BSTAR":"-0.00005191200000","MEAN_ANOMALY":"289.1151","OBJECT_TYPE":"PAYLOAD","GP_ID":"202859287","ECCENTRICITY":"0.00018390","SEMIMAJOR_AXIS":"6925.331","CENTER_NAME":"EARTH","MEAN_MOTION":"15.06405696","REF_FRAME":"TEME","ELEMENT_SET_NO":"999","SITE":"AFETR","TLE_LINE2":"2 45705  53.0520 245.9196 0001839  71.0037 289.1151 15.06405696107224","EPOCH":"2022-05-06T11:13:42.843072","FILE":"3432208"},{"COUNTRY_CODE":"US","DECAY_DATE":null,"REV_AT_EPOCH":"10727","MEAN_ELEMENT_THEORY":"SGP4","TIME_SYSTEM":"UTC","APOAPSIS":"548.329","MEAN_MOTION_DDOT":"0.0000000000000","OBJECT_ID":"2020-035BB","MEAN_MOTION_DOT":"-0.00000477","NORAD_CAT_ID":"45706","TLE_LINE1":"1 45706U 20035BB  22126.65860157 -.00000477  00000-0 -13088-4 0  9997","ARG_OF_PERICENTER":"51.1171","PERIAPSIS":"546.063","CLASSIFICATION_TYPE":"U","RCS_SIZE":"LARGE","OBJECT_NAME":"STARLINK-1411","BSTAR":"-0.00001308800000","RA_OF_ASC_NODE":"215.0631","LAUNCH_DATE":"2020-06-04","EPHEMERIS_TYPE":"0","PERIOD":"95.592","INCLINATION":"53.0536","SEMIMAJOR_AXIS":"6925.331","GP_ID":"202868189","ECCENTRICITY":"0.00016360","CENTER_NAME":"EARTH","MEAN_MOTION":"15.06405785","MEAN_ANOMALY":"308.9963","OBJECT_TYPE":"PAYLOAD","FILE":"3432382","SITE":"AFETR","ELEMENT_SET_NO":"999","EPOCH":"2022-05-06T15:48:23.175648","TLE_LINE2":"2 45706  53.0536 215.0631 0001636  51.1171 308.9963 15.06405785107272","REF_FRAME":"TEME"},{"FILE":"3432208","TLE_LINE2":"2 45707  53.0552 215.6855 0001620  63.4748 296.6407 15.06387978107666","EPOCH":"2022-05-06T12:32:01.417632","ELEMENT_SET_NO":"999","SITE":"AFETR","REF_FRAME":"TEME","SEMIMAJOR_AXIS":"6925.385","ECCENTRICITY":"0.00016200","GP_ID":"202858286","MEAN_MOTION":"15.06387978","CENTER_NAME":"EARTH","MEAN_ANOMALY":"296.6407","OBJECT_TYPE":"PAYLOAD","CLASSIFICATION_TYPE":"U","RCS_SIZE":"LARGE","OBJECT_NAME":"STARLINK-1412","BSTAR":"-0.00019408000000","LAUNCH_DATE":"2020-06-04","RA_OF_ASC_NODE":"215.6855","PERIOD":"95.593","EPHEMERIS_TYPE":"0","INCLINATION":"53.0552","DECAY_DATE":null,"COUNTRY_CODE":"US","REV_AT_EPOCH":"10766","APOAPSIS":"548.372","TIME_SYSTEM":"UTC","MEAN_ELEMENT_THEORY":"SGP4","TLE_LINE1":"1 45707U 20035BC  22126.52223863 -.00003170  00000-0 -19408-3 0  9995","MEAN_MOTION_DDOT":"0.0000000000000","MEAN_MOTION_DOT":"-0.00003170","NORAD_CAT_ID":"45707","OBJECT_ID":"2020-035BC","ARG_OF_PERICENTER":"63.4748","PERIAPSIS":"546.128"},{"GP_ID":"202870505","ECCENTRICITY":"0.00013650","SEMIMAJOR_AXIS":"6925.327","CENTER_NAME":"EARTH","MEAN_MOTION":"15.06406942","MEAN_ANOMALY":"304.2482","OBJECT_TYPE":"PAYLOAD","FILE":"3432482","REF_FRAME":"TEME","ELEMENT_SET_NO":"999","SITE":"AFETR","EPOCH":"2022-05-06T15:05:56.268672","TLE_LINE2":"2 45708  53.0527 215.1915 0001365  55.8636 304.2482 15.06406942107277","COUNTRY_CODE":"US","DECAY_DATE":null,"REV_AT_EPOCH":"10727","MEAN_MOTION_DDOT":"0.0000000000000","NORAD_CAT_ID":"45708","MEAN_MOTION_DOT":"-0.00000765","OBJECT_ID":"2020-035BD","TLE_LINE1":"1 45708U 20035BD  22126.62912348 -.00000765  00000-0 -32460-4 0  9991","MEAN_ELEMENT_THEORY":"SGP4","TIME_SYSTEM":"UTC","APOAPSIS":"548.138","PERIAPSIS":"546.247","ARG_OF_PERICENTER":"55.8636","OBJECT_NAME":"STARLINK-1418","RCS_SIZE":"LARGE","CLASSIFICATION_TYPE":"U","RA_OF_ASC_NODE":"215.1915","LAUNCH_DATE":"2020-06-04","BSTAR":"-0.00003246000000","INCLINATION":"53.0527","EPHEMERIS_TYPE":"0","PERIOD":"95.592"},{"BSTAR":"-0.00015634000000","LAUNCH_DATE":"2020-06-04","RA_OF_ASC_NODE":"215.6405","CLASSIFICATION_TYPE":"U","RCS_SIZE":"LARGE","OBJECT_NAME":"STARLINK-1421","PERIOD":"95.593","EPHEMERIS_TYPE":"0","INCLINATION":"53.0559","REV_AT_EPOCH":"10762","DECAY_DATE":null,"COUNTRY_CODE":"US","ARG_OF_PERICENTER":"54.2069","PERIAPSIS":"546.157","APOAPSIS":"548.340","TIME_SYSTEM":"UTC","MEAN_ELEMENT_THEORY":"SGP4","TLE_LINE1":"1 45709U 20035BE  22126.53329697 -.00002609  00000-0 -15634-3 0  9993","OBJECT_ID":"2020-035BE","MEAN_MOTION_DDOT":"0.0000000000000","MEAN_MOTION_DOT":"-0.00002609","NORAD_CAT_ID":"45709","FILE":"3432208","TLE_LINE2":"2 45709  53.0559 215.6405 0001576  54.2069 305.9066 15.06388570107620","EPOCH":"2022-05-06T12:47:56.858208","SITE":"AFETR","ELEMENT_SET_NO":"999","REF_FRAME":"TEME","MEAN_MOTION":"15.06388570","CENTER_NAME":"EARTH","SEMIMAJOR_AXIS":"6925.384","ECCENTRICITY":"0.00015760","GP_ID":"202859788","OBJECT_TYPE":"PAYLOAD","MEAN_ANOMALY":"305.9066"},{"PERIAPSIS":"546.005","ARG_OF_PERICENTER":"45.1672","TLE_LINE1":"1 45710U 20035BF  22126.72863898 -.00000248  00000-0  22638-5 0  9992","MEAN_MOTION_DOT":"-0.00000248","MEAN_MOTION_DDOT":"0.0000000000000","NORAD_CAT_ID":"45710","OBJECT_ID":"2020-035BF","TIME_SYSTEM":"UTC","APOAPSIS":"548.398","MEAN_ELEMENT_THEORY":"SGP4","REV_AT_EPOCH":"10728","DECAY_DATE":null,"COUNTRY_CODE":"US","INCLINATION":"53.0549","PERIOD":"95.592","EPHEMERIS_TYPE":"0","LAUNCH_DATE":"2020-06-04","RA_OF_ASC_NODE":"214.7563","BSTAR":"0.00000226380000","OBJECT_NAME":"STARLINK-1423","RCS_SIZE":"LARGE","CLASSIFICATION_TYPE":"U","OBJECT_TYPE":"PAYLOAD","MEAN_ANOMALY":"314.9457","MEAN_MOTION":"15.06403919","CENTER_NAME":"EARTH","ECCENTRICITY":"0.00017280","GP_ID":"202870532","SEMIMAJOR_AXIS":"6925.337","REF_FRAME":"TEME","TLE_LINE2":"2 45710  53.0549 214.7563 0001728  45.1672 314.9457 15.06403919107285","EPOCH":"2022-05-06T17:29:14.407872","ELEMENT_SET_NO":"999","SITE":"AFETR","FILE":"3432483"},{"TIME_SYSTEM":"UTC","APOAPSIS":"548.501","MEAN_ELEMENT_THEORY":"SGP4","TLE_LINE1":"1 45711U 20035BG  22126.51116373  .00000603  00000-0  59381-4 0  9997","MEAN_MOTION_DDOT":"0.0000000000000","MEAN_MOTION_DOT":"0.00000603","OBJECT_ID":"2020-035BG","NORAD_CAT_ID":"45711","ARG_OF_PERICENTER":"54.7251","PERIAPSIS":"545.881","DECAY_DATE":null,"COUNTRY_CODE":"US","REV_AT_EPOCH":"10765","PERIOD":"95.592","EPHEMERIS_TYPE":"0","INCLINATION":"53.0536","CLASSIFICATION_TYPE":"U","RCS_SIZE":"LARGE","OBJECT_NAME":"STARLINK-1433","BSTAR":"0.00005938100000","LAUNCH_DATE":"2020-06-04","RA_OF_ASC_NODE":"215.7309","MEAN_ANOMALY":"305.3915","OBJECT_TYPE":"PAYLOAD","SEMIMAJOR_AXIS":"6925.326","ECCENTRICITY":"0.00018920","GP_ID":"202858787","MEAN_MOTION":"15.06407404","CENTER_NAME":"EARTH","EPOCH":"2022-05-06T12:16:04.546272","TLE_LINE2":"2 45711  53.0536 215.7309 0001892  54.7251 305.3915 15.06407404107659","ELEMENT_SET_NO":"999","SITE":"AFETR","REF_FRAME":"TEME","FILE":"3432208"},{"FILE":"3432483","REF_FRAME":"TEME","EPOCH":"2022-05-06T16:57:24.528960","TLE_LINE2":"2 45712  53.0541 214.8641 0001629  61.3626 298.7526 15.06399518107281","SITE":"AFETR","ELEMENT_SET_NO":"999","MEAN_MOTION":"15.06399518","CENTER_NAME":"EARTH","ECCENTRICITY":"0.00016290","GP_ID":"202871033","SEMIMAJOR_AXIS":"6925.350","OBJECT_TYPE":"PAYLOAD","MEAN_ANOMALY":"298.7526","LAUNCH_DATE":"2020-06-04","RA_OF_ASC_NODE":"214.8641","BSTAR":"-0.00001991400000","OBJECT_NAME":"STARLINK-1434","CLASSIFICATION_TYPE":"U","RCS_SIZE":"LARGE","INCLINATION":"53.0541","PERIOD":"95.592","EPHEMERIS_TYPE":"0","REV_AT_EPOCH":"10728","DECAY_DATE":null,"COUNTRY_CODE":"US","PERIAPSIS":"546.087","ARG_OF_PERICENTER":"61.3626","TLE_LINE1":"1 45712U 20035BH  22126.70653390 -.00000578  00000-0 -19914-4 0  9995","MEAN_MOTION_DDOT":"0.0000000000000","NORAD_CAT_ID":"45712","MEAN_MOTION_DOT":"-0.00000578","OBJECT_ID":"2020-035BH","APOAPSIS":"548.343","TIME_SYSTEM":"UTC","MEAN_ELEMENT_THEORY":"SGP4"}];
